ISS (ZARYA)             
1 25544U 98067A   26168.83452610  .00010577  00000+0  19787-3 0  9996
2 25544  51.6335 296.8886 0004752 198.5228 161.5588 15.49287853571857
OSCAR 7 (AO-7)          
1 07530U 74089B   26168.63445769 -.00000045  00000+0  69834-5 0  9994
2 07530 101.9900 181.8858 0012581 129.2788 349.4194 12.53698122360574
PHASE 3B (AO-10)        
1 14129U 83058B   26168.36952042  .00000190  00000+0  00000+0 0  9993
2 14129  25.9123 219.5345 6010777 115.7182 316.6307  2.05868747295495
UOSAT 2 (UO-11)         
1 14781U 84021B   26168.89257812  .00000920  00000+0  99183-4 0  9995
2 14781  97.8058 134.4592 0007720 170.0006 190.1367 14.90784781257233
LUSAT (LO-19)           
1 20442U 90005G   26168.60057559  .00000080  00000+0  45223-4 0  9993
2 20442  98.8850 190.4176 0011141 199.8260 160.2493 14.34123292902459
EYESAT A (AO-27)        
1 22825U 93061C   26168.76903799  .00000075  00000+0  45510-4 0  9991
2 22825  98.6881 236.1824 0009541  98.2958 261.9307 14.30942422707088
ITAMSAT (IO-26)         
1 22826U 93061D   26168.74827701  .00000074  00000+0  44653-4 0  9994
2 22826  98.6829 236.0791 0010066  83.5206 276.7123 14.31369320707395
RADIO ROSTO (RS15)      
1 23439U 94085A   26168.64811551 -.00000052  00000+0 -25614-3 0  9990
2 23439  64.8179 302.4707 0155961   3.7912 356.4156 11.27583457295953
JAS-2 (FO-29)           
1 24278U 96046B   26168.53292174 -.00000001  00000+0  31612-4 0  9992
2 24278  98.5239  17.3577 0350906  95.5376 268.5887 13.53274425473216
TECHSAT 1B (GO-32)      
1 25397U 98043D   26168.83706287  .00000036  00000+0  35909-4 0  9992
2 25397  99.0067 161.6120 0001100 161.3661 198.7558 14.24428490451429
PCSAT (NO-44)           
1 26931U 01043C   26168.50854178  .00000074  00000+0  58672-4 0  9992
2 26931  67.0505 243.4407 0006079 264.6457  95.3952 14.31956189290490
SAUDISAT 1C (SO-50)     
1 27607U 02058C   26168.89705227  .00000776  00000+0  10901-3 0  9993
2 27607  64.5511 126.7887 0075200 262.3451  96.9110 14.83048298264568
CUTE-1 (CO-55)          
1 27844U 03031E   26168.52891236  .00000222  00000+0  11503-3 0  9999
2 27844  98.6736 177.0834 0009564 176.9717 183.1521 14.24335893191721
CUBESAT XI-IV (CO-57)   
1 27848U 03031J   26167.95527530  .00000197  00000+0  10575-3 0  9991
2 27848  98.6766 176.2299 0009009 197.6805 162.4061 14.23620738191347
MOZHAETS 4 (RS22)       
1 27939U 03042A   26168.97760936  .00001129  00000+0  18210-3 0  9996
2 27939  98.3463 353.3585 0009917 267.0998 252.2102 14.73469717215667
CUBESAT XI-V            
1 28895U 05043F   26168.87823089  .00001113  00000+0  18294-3 0  9994
2 28895  98.2987 324.5146 0013699 198.4273 161.6440 14.72633171101856
CUTE-1.7+APD II (CO-65) 
1 32785U 08021C   26168.91168141  .00004224  00000+0  26784-3 0  9991
2 32785  97.8273 150.3452 0009672  36.6231 323.5656 15.09456805985306
SEEDS II (CO-66)        
1 32791U 08021J   26168.52727106  .00014659  00000+0  46558-3 0  9991
2 32791  97.7515 166.4411 0001013   2.1401 357.9844 15.32761121987344
YUBILEINY (RS30)        
1 32953U 08025A   26168.90324285 -.00000007  00000+0 -11818-3 0  9993
2 32953  82.5037 354.9945 0018819 312.2470  47.7013 12.43179370819786
KKS-1 (KISEKI)          
1 33499U 09002H   26168.93125957  .00001041  00000+0  13449-3 0  9992
2 33499  98.1189  91.3853 0006490 293.0024  67.0504 14.83125795936302
SWISSCUBE               
1 35932U 09051B   26168.30549632  .00000774  00000+0  16253-3 0  9999
2 35932  98.4035  76.1959 0005970 202.6029 157.4910 14.62481763889174
BEESAT-1                
1 35933U 09051C   26168.58880448  .00000640  00000+0  13834-3 0  9997
2 35933  98.3963  76.1188 0004244 215.3453 144.7466 14.61721012889249
ITUPSAT1                
1 35935U 09051E   26167.68937775  .00000621  00000+0  13815-3 0  9993
2 35935  98.4049  74.3980 0006243 235.8160 124.2448 14.60440072888661
XIWANG-1 (HOPE-1)       
1 36122U 09072B   26168.92787475  .00000131  00000+0  46070-3 0  9998
2 36122 100.4030 122.7487 0006862 229.8560 130.1952 13.16439165793109
O/OREOS (USA 219)       
1 37224U 10062C   26168.86584901  .00001787  00000+0  17432-3 0  9993
2 37224  71.9713  78.8023 0012559  61.5865 298.6570 14.93747225116749
JUGNU                   
1 37839U 11058B   26168.10338876  .00000397  00000+0  67695-4 0  9999
2 37839  19.9617 308.9384 0018637  75.2680  81.6214 14.13776752759010
SRMSAT                  
1 37841U 11058D   26168.92892368  .00000356  00000+0  49102-4 0  9991
2 37841  19.9725  54.9771 0011772 211.7951 216.6282 14.11575698757929
STRAND-1                
1 39090U 13009E   26168.40411720  .00000200  00000+0  81523-4 0  9990
2 39090  98.3921 348.6331 0007740 224.5374 135.5192 14.37163347697094
ZACUBE-1 (TSHEPISOSAT)  
1 39417U 13066B   26168.94052998  .00002469  00000+0  19407-3 0  9993
2 39417  97.8077 131.2813 0040898 245.0967 114.6003 15.01192546680840
GOMX-1                  
1 39430U 13066Q   26168.93499152  .00001615  00000+0  24686-3 0  9991
2 39430  97.6476   9.3505 0130170  75.1501 286.4082 14.69463187670027
